[{"OBJECT_NAME":"CHUANGXIN 1-03 (CX-1-03)","OBJECT_ID":"2011-068A","EPOCH":"2026-03-09T23:48:05.343264","MEAN_MOTION":14.30514213,"ECCENTRICITY":0.00158467,"INCLINATION":98.7066,"RA_OF_ASC_NODE":86.521,"ARG_OF_PERICENTER":50.1728,"MEAN_ANOMALY":9.9604,"EPHEMERIS_TYPE":0,"CLASSIFICATION_TYPE":"U","NORAD_CAT_ID":37930,"ELEMENT_SET_NO":999,"REV_AT_EPOCH":74647,"BSTAR":-1.9220958e-5,"MEAN_MOTION_DOT":-9.5e-7,"MEAN_MOTION_DDOT":0},{"OBJECT_NAME":"FENGYUN 1C DEB","OBJECT_ID":"1999-025CVW","EPOCH":"2026-03-07T20:01:26.812704","MEAN_MOTION":14.34224157,"ECCENTRICITY":0.00757059,"INCLINATION":98.9963,"RA_OF_ASC_NODE":26.195,"ARG_OF_PERICENTER":176.7749,"MEAN_ANOMALY":183.3938,"EPHEMERIS_TYPE":0,"CLASSIFICATION_TYPE":"U","NORAD_CAT_ID":32224,"ELEMENT_SET_NO":999,"REV_AT_EPOCH":96943,"BSTAR":0.00033955024,"MEAN_MOTION_DOT":9.36e-6,"MEAN_MOTION_DDOT":0}]
